CSS (TIANHE)            
1 48274U 21035A   24136.58337501  .00047616  00000+0  48533-3 0  9993
2 48274  41.4682 282.2574 0003318 344.4878  15.5860 15.64269939173993
